0 FENGYUN 1C DEB
1 31733U 99025CEG 13282.50908687  .00004872  00000-0  85132-3 0  8308
2 31733 099.1004 158.5198 0163035 124.7963 354.0103 14.60070454336840
0 FENGYUN 1C DEB
1 31733U 99025CEG 13284.49679520  .00005528  00000-0  96412-3 0  8312
2 31733 099.1004 160.7013 0163039 118.7845 001.9133 14.60081241337137
0 FENGYUN 1C DEB
1 31733U 99025CEG 13286.60417113  .00004378  00000-0  76550-3 0  8329
2 31733 099.1006 163.0143 0163135 112.4010 278.9432 14.60097586337442
0 FENGYUN 1C DEB
1 31733U 99025CEG 13288.87125119  .00006780  00000-0  11783-2 0  8338
2 31733 099.1003 165.5027 0163150 105.5367 315.5829 14.60122185337770
0 FENGYUN 1C DEB
1 31733U 99025CEG 13291.14981270  .00005947  00000-0  10343-2 0  8346
2 31733 099.0995 168.0038 0163186 098.6551 052.7731 14.60147653338102
0 FENGYUN 1C DEB
1 31733U 99025CEG 13293.20068778  .00005777  00000-0  10047-2 0  8357
2 31733 099.0989 170.2549 0163186 092.4545 033.3032 14.60165182338401
0 FENGYUN 1C DEB
1 31733U 99025CEG 13295.86114733  .00007186  00000-0  12459-2 0  8360
2 31733 099.0983 173.1752 0163226 084.4219 338.3420 14.60189765338791
